[{"OBJECT_NAME":"CHUANGXIN 1-02 (CX-1-02)","OBJECT_ID":"2008-056B","EPOCH":"2026-03-09T22:48:06.707232","MEAN_MOTION":14.30130448,"ECCENTRICITY":0.00153994,"INCLINATION":98.625,"RA_OF_ASC_NODE":96.1592,"ARG_OF_PERICENTER":73.2963,"MEAN_ANOMALY":286.9908,"EPHEMERIS_TYPE":0,"CLASSIFICATION_TYPE":"U","NORAD_CAT_ID":33434,"ELEMENT_SET_NO":999,"REV_AT_EPOCH":90443,"BSTAR":1.1632331e-5,"MEAN_MOTION_DOT":-1.4e-7,"MEAN_MOTION_DDOT":0},{"OBJECT_NAME":"FENGYUN 1C DEB","OBJECT_ID":"1999-025DPS","EPOCH":"2026-03-05T12:28:38.501184","MEAN_MOTION":14.34886846,"ECCENTRICITY":0.004832,"INCLINATION":99.0991,"RA_OF_ASC_NODE":77.6286,"ARG_OF_PERICENTER":359.4459,"MEAN_ANOMALY":152.1979,"EPHEMERIS_TYPE":0,"CLASSIFICATION_TYPE":"U","NORAD_CAT_ID":35210,"ELEMENT_SET_NO":999,"REV_AT_EPOCH":91309,"BSTAR":0.003249,"MEAN_MOTION_DOT":9.318e-5,"MEAN_MOTION_DDOT":0}]
